STARLINK-30566          
1 58054U 23158D   26185.74277775  .00018390  00000+0  67543-3 0  9997
2 58054  42.9941  85.8332 0001140 281.6564  78.4159 15.27614252151477
STARLINK-30544          
1 58055U 23158E   26185.73120710  .00001803  00000+0  74976-4 0  9993
2 58055  43.0023  85.7442 0001380 255.7666 104.3033 15.27610866151470
STARLINK-30553          
1 58056U 23158F   26185.74535165  .00007433  00000+0  27930-3 0  9991
2 58056  42.9992  85.8492 0001009 282.7410  77.3329 15.27587841151478
STARLINK-30541          
1 58057U 23158G   26185.73894359  .00003481  00000+0  13603-3 0  9995
2 58057  43.0010  85.8042 0001082 277.8614  82.2115 15.27558126151477
STARLINK-30573          
1 58058U 23158H   26185.74919272  .00004411  00000+0  16960-3 0  9992
2 58058  42.9998  85.8737 0001557 275.3857  84.6817 15.27599501151478
STARLINK-30582          
1 58059U 23158J   26185.72737812  .00000476  00000+0  26847-4 0  9992
2 58059  43.0022  85.7173 0002093 283.7955  76.2663 15.27581983151471
STARLINK-30558          
1 58060U 23158K   26185.77489881  .00002508  00000+0  10061-3 0  9997
2 58060  43.0034  86.0583 0000977 267.3596  92.7144 15.27590676151479
STARLINK-30579          
1 58061U 23158L   26185.06386296  .00002919  00000+0  11560-3 0  9997
2 58061  43.0048  64.0295 0001350 277.5746  82.4952 15.27570440151668
STARLINK-30588          
1 58062U 23158M   26185.42612546  .00000716  00000+0  35530-4 0  9995
2 58062  43.0007  87.7515 0001467 276.2180  83.8505 15.27585260151427
STARLINK-30585          
1 58063U 23158N   26185.10691713  .00000582  00000+0  30684-4 0  9990
2 58063  43.0027  89.6599 0001462 272.3171  87.7513 15.27572069151374
STARLINK-30587          
1 58064U 23158P   26185.73506528  .00004082  00000+0  15777-3 0  9993
2 58064  43.0022  85.7734 0002097 294.8319  65.2315 15.27581053151471
STARLINK-30576          
1 58065U 23158Q   26185.42743126  .00002532  00000+0  10153-3 0  9998
2 58065  42.9994  87.7719 0001812 265.2018  94.8626 15.27571433151424
STARLINK-30571          
1 58066U 23158R   26185.77103777  .00002521  00000+0  10106-3 0  9995
2 58066  43.0031  86.0409 0001301 271.3797  88.6906 15.27595734151479
STARLINK-30567          
1 58067U 23158S   26185.77875455  .00002855  00000+0  11314-3 0  9997
2 58067  43.0045  86.0843 0001787 274.6590  85.4057 15.27604858151472
STARLINK-30569          
1 58068U 23158T   26185.42949054  .00007414  00000+0  27855-3 0  9990
2 58068  43.0002  91.1864 0001799 266.8333  93.2313 15.27594522151385
STARLINK-30480          
1 58069U 23158U   26185.68220319  .00003451  00000+0  13485-3 0  9996
2 58069  43.0018 304.1215 0001340 263.7630  96.3069 15.27583008153132
STARLINK-30532          
1 58070U 23158V   26185.42997875  .00000231  00000+0  17928-4 0  9998
2 58070  43.0012  87.7813 0001511 278.1829  81.8851 15.27586611151427
STARLINK-30506          
1 58072U 23158X   26185.76718894  .00011498  00000+0  42637-3 0  9990
2 58072  43.0018  86.0045 0001313 276.9963  83.0739 15.27603816151470
STARLINK-30604          
1 58075U 23160A   26185.90052501  .00002442  00000+0  98192-4 0  9995
2 58075  43.0030 135.7850 0001161 266.5867  93.4852 15.27589380150875
STARLINK-30500          
1 58076U 23160B   26185.91337995  .00001405  00000+0  60573-4 0  9990
2 58076  43.0022 135.8687 0001707 260.3694  99.6965 15.27571900150874
STARLINK-30613          
1 58077U 23160C   26185.90695353  .00001115  00000+0  49983-4 0  9995
2 58077  43.0011 135.8313 0000439 262.5831  97.4970 15.27600136150884
STARLINK-30597          
1 58078U 23160D   26185.89281527  .00001982  00000+0  81508-4 0  9999
2 58078  43.0012 135.7076 0001254 268.9214  91.1494 15.27586846150874
STARLINK-30598          
1 58079U 23160E   26185.91077744  .00005617  00000+0  21327-3 0  9998
2 58079  43.0011 135.8566 0000349 216.0725 144.0103 15.27609496150876
STARLINK-30603          
1 58080U 23160F   26185.91467176  .00001727  00000+0  72261-4 0  9994
2 58080  43.0027 135.8874 0000752 259.2949 100.7819 15.27583766150876
STARLINK-30602          
1 58081U 23160G   26185.89761576  .00027304  00000+0  10390-2 0  9995
2 58081  42.9966 139.1789 0000513 143.2147 216.8739 15.26250158150837
STARLINK-30610          
1 58082U 23160H   26185.87497837 -.00001041  00000+0 -28307-4 0  9991
2 58082  43.0039 136.4434 0001969 276.0510  84.0117 15.27577408150862
STARLINK-30551          
1 58083U 23160J   26185.91032161  .00000749  00000+0  36754-4 0  9999
2 58083  42.9987 139.2533 0003179 130.5224 229.5905 15.27580109150835
STARLINK-30586          
1 58084U 23160K   26185.58725633 -.00000950  00000+0 -25042-4 0  9990
2 58084  43.0031 141.1278 0000524 333.5349  26.5476 15.27562186150787
STARLINK-30609          
1 58085U 23160L   26185.91802082  .00000728  00000+0  35971-4 0  9995
2 58085  43.0049 139.3138 0001126 263.1452  96.9271 15.27594009150832
STARLINK-30583          
1 58086U 23160M   26185.92187985  .00005204  00000+0  19855-3 0  9991
2 58086  43.0029 139.3410 0001701 251.1905 108.8763 15.27570069150832
