OBJECT_NAME,OBJECT_ID,EPOCH,MEAN_MOTION,ECCENTRICITY,INCLINATION,RA_OF_ASC_NODE,ARG_OF_PERICENTER,MEAN_ANOMALY,EPHEMERIS_TYPE,CLASSIFICATION_TYPE,NORAD_CAT_ID,ELEMENT_SET_NO,REV_AT_EPOCH,BSTAR,MEAN_MOTION_DOT,MEAN_MOTION_DDOT
STARLINK-30566,2023-158D,2026-07-04T17:49:35.997600,15.27614252,.00011401,42.9941,85.8332,281.6564,78.4159,0,U,58054,999,15147,.67542629E-3,.1839E-3,0
STARLINK-30544,2023-158E,2026-07-04T17:32:56.293440,15.27610866,.000138,43.0023,85.7442,255.7666,104.3033,0,U,58055,999,15147,.74976281E-4,.1803E-4,0
STARLINK-30553,2023-158F,2026-07-04T17:53:18.382560,15.27587841,.00010096,42.9992,85.8492,282.7410,77.3329,0,U,58056,999,15147,.27929962E-3,.7433E-4,0
STARLINK-30541,2023-158G,2026-07-04T17:44:04.726176,15.27558126,.00010825,43.0010,85.8042,277.8614,82.2115,0,U,58057,999,15147,.13603275E-3,.3481E-4,0
STARLINK-30573,2023-158H,2026-07-04T17:58:50.251008,15.27599501,.00015571,42.9998,85.8737,275.3857,84.6817,0,U,58058,999,15147,.16960492E-3,.4411E-4,0
STARLINK-30582,2023-158J,2026-07-04T17:27:25.469568,15.27581983,.00020933,43.0022,85.7173,283.7955,76.2663,0,U,58059,999,15147,.26847368E-4,.476E-5,0
STARLINK-30558,2023-158K,2026-07-04T18:35:51.257184,15.27590676,.00009775,43.0034,86.0583,267.3596,92.7144,0,U,58060,999,15147,.10061409E-3,.2508E-4,0
STARLINK-30579,2023-158L,2026-07-04T01:31:57.759744,15.27570440,.00013507,43.0048,64.0295,277.5746,82.4952,0,U,58061,999,15166,.11559664E-3,.2919E-4,0
STARLINK-30588,2023-158M,2026-07-04T10:13:37.239744,15.27585260,.00014679,43.0007,87.7515,276.2180,83.8505,0,U,58062,999,15142,.3553037E-4,.716E-5,0
STARLINK-30585,2023-158N,2026-07-04T02:33:57.640032,15.27572069,.00014625,43.0027,89.6599,272.3171,87.7513,0,U,58063,999,15137,.30683976E-4,.582E-5,0
STARLINK-30587,2023-158P,2026-07-04T17:38:29.640192,15.27581053,.00020975,43.0022,85.7734,294.8319,65.2315,0,U,58064,999,15147,.15777025E-3,.4082E-4,0
STARLINK-30576,2023-158Q,2026-07-04T10:15:30.060864,15.27571433,.00018127,42.9994,87.7719,265.2018,94.8626,0,U,58065,999,15142,.10153253E-3,.2532E-4,0
STARLINK-30571,2023-158R,2026-07-04T18:30:17.663328,15.27595734,.00013011,43.0031,86.0409,271.3797,88.6906,0,U,58066,999,15147,.10105687E-3,.2521E-4,0
STARLINK-30567,2023-158S,2026-07-04T18:41:24.393120,15.27604858,.00017872,43.0045,86.0843,274.6590,85.4057,0,U,58067,999,15147,.1131432E-3,.2855E-4,0
STARLINK-30569,2023-158T,2026-07-04T10:18:27.982656,15.27594522,.00017997,43.0002,91.1864,266.8333,93.2313,0,U,58068,999,15138,.27854508E-3,.7414E-4,0
STARLINK-30480,2023-158U,2026-07-04T16:22:22.355616,15.27583008,.00013401,43.0018,304.1215,263.7630,96.3069,0,U,58069,999,15313,.13484826E-3,.3451E-4,0
STARLINK-30532,2023-158V,2026-07-04T10:19:10.164000,15.27586611,.00015116,43.0012,87.7813,278.1829,81.8851,0,U,58070,999,15142,.17928402E-4,.231E-5,0
STARLINK-30506,2023-158X,2026-07-04T18:24:45.124416,15.27603816,.00013137,43.0018,86.0045,276.9963,83.0739,0,U,58072,999,15147,.42637309E-3,.11498E-3,0
STARLINK-30604,2023-160A,2026-07-04T21:36:45.360864,15.27589380,.00011613,43.0030,135.7850,266.5867,93.4852,0,U,58075,999,15087,.98191618E-4,.2442E-4,0
STARLINK-30500,2023-160B,2026-07-04T21:55:16.027680,15.27571900,.00017078,43.0022,135.8687,260.3694,99.6965,0,U,58076,999,15087,.60572942E-4,.1405E-4,0
STARLINK-30613,2023-160C,2026-07-04T21:46:00.784992,15.27600136,.00004391,43.0011,135.8313,262.5831,97.4970,0,U,58077,999,15088,.49982886E-4,.1115E-4,0
STARLINK-30597,2023-160D,2026-07-04T21:25:39.239328,15.27586846,.00012541,43.0012,135.7076,268.9214,91.1494,0,U,58078,999,15087,.81507697E-4,.1982E-4,0
STARLINK-30598,2023-160E,2026-07-04T21:51:31.170816,15.27609496,.00003496,43.0011,135.8566,216.0725,144.0103,0,U,58079,999,15087,.21327222E-3,.5617E-4,0
STARLINK-30603,2023-160F,2026-07-04T21:57:07.640064,15.27583766,.00007522,43.0027,135.8874,259.2949,100.7819,0,U,58080,999,15087,.72260606E-4,.1727E-4,0
STARLINK-30602,2023-160G,2026-07-04T21:32:34.001664,15.26250158,.00005139,42.9966,139.1789,143.2147,216.8739,0,U,58081,999,15083,.10390474E-2,.27304E-3,0
STARLINK-30610,2023-160H,2026-07-04T20:59:58.131168,15.27577408,.00019692,43.0039,136.4434,276.0510,84.0117,0,U,58082,999,15086,-.28307414E-4,-.1041E-4,0
STARLINK-30551,2023-160J,2026-07-04T21:50:51.787104,15.27580109,.0003179,42.9987,139.2533,130.5224,229.5905,0,U,58083,999,15083,.36754E-4,.749E-5,0
STARLINK-30586,2023-160K,2026-07-04T14:05:38.946912,15.27562186,.00005246,43.0031,141.1278,333.5349,26.5476,0,U,58084,999,15078,-.25041674E-4,-.95E-5,0
STARLINK-30609,2023-160L,2026-07-04T22:01:56.998848,15.27594009,.00011262,43.0049,139.3138,263.1452,96.9271,0,U,58085,999,15083,.35971286E-4,.728E-5,0
STARLINK-30583,2023-160M,2026-07-04T22:07:30.419040,15.27570069,.00017013,43.0029,139.3410,251.1905,108.8763,0,U,58086,999,15083,.19855431E-3,.5204E-4,0
